{
  "type": "FeatureCollection",
  "features": [
    {
      "type": "Feature",
      "properties": {
        "norad_id": 66496,
        "name": "STARLINK-35909",
        "group": "last-30-days",
        "lat": -34.10792520254154,
        "lon": 81.89185388044596,
        "alt_km": 417.64941167662346,
        "timestamp": "2025-12-12T03:50:51.176216+00:00",
        "meta_object_name": "STARLINK-35909",
        "meta_object_id": "2025-263M",
        "meta_epoch": "2025-12-11T14:00:01.999872",
        "meta_mean_motion": 15.50624844,
        "meta_eccentricity": 0.00012825,
        "meta_inclination": 43.0003,
        "meta_ra_of_asc_node": 131.884,
        "meta_arg_of_pericenter": 268.4861,
        "meta_mean_anomaly": 51.8302,
        "meta_ephemeris_type": 0,
        "meta_classification_type": "U",
        "meta_norad_cat_id": 66496,
        "meta_element_set_no": 999,
        "meta_rev_at_epoch": 545,
        "meta_bstar": -0.0027752156,
        "meta_mean_motion_dot": -0.00160124,
        "meta_mean_motion_ddot": 0,
        "tle_line1": "1 66496U 25263M   25345.58335648 -.00160124  00000+0 -27752-2 0  9990",
        "tle_line2": "2 66496  43.0003 131.8840 0001282 268.4861  51.8302 15.50624844  5458"
      },
      "geometry": {
        "type": "Point",
        "coordinates": [
          81.89185388044596,
          -34.10792520254154
        ]
      }
    },
    {
      "type": "Feature",
      "properties": {
        "norad_id": 66497,
        "name": "STARLINK-35899",
        "group": "last-30-days",
        "lat": -33.19294033641801,
        "lon": 83.91233062617621,
        "alt_km": 417.5516091626805,
        "timestamp": "2025-12-12T03:50:51.176227+00:00",
        "meta_object_name": "STARLINK-35899",
        "meta_object_id": "2025-263N",
        "meta_epoch": "2025-12-11T14:00:01.999872",
        "meta_mean_motion": 15.50621813,
        "meta_eccentricity": 0.00013166,
        "meta_inclination": 43.0003,
        "meta_ra_of_asc_node": 131.8789,
        "meta_arg_of_pericenter": 271.1571,
        "meta_mean_anomaly": 51.0758,
        "meta_ephemeris_type": 0,
        "meta_classification_type": "U",
        "meta_norad_cat_id": 66497,
        "meta_element_set_no": 999,
        "meta_rev_at_epoch": 545,
        "meta_bstar": -0.0026265341,
        "meta_mean_motion_dot": -0.00151709,
        "meta_mean_motion_ddot": 0,
        "tle_line1": "1 66497U 25263N   25345.58335648 -.00151709  00000+0 -26265-2 0  9998",
        "tle_line2": "2 66497  43.0003 131.8789 0001316 271.1571  51.0758 15.50621813  5458"
      },
      "geometry": {
        "type": "Point",
        "coordinates": [
          83.91233062617621,
          -33.19294033641801
        ]
      }
    },
    {
      "type": "Feature",
      "properties": {
        "norad_id": 66498,
        "name": "STARLINK-35907",
        "group": "last-30-days",
        "lat": -37.538104595565116,
        "lon": 4.201218324829943,
        "alt_km": 446.3401542482634,
        "timestamp": "2025-12-12T03:50:51.176237+00:00",
        "meta_object_name": "STARLINK-35907",
        "meta_object_id": "2025-263P",
        "meta_epoch": "2025-12-11T14:00:01.999872",
        "meta_mean_motion": 15.40631882,
        "meta_eccentricity": 0.00013818,
        "meta_inclination": 43.0003,
        "meta_ra_of_asc_node": 131.9819,
        "meta_arg_of_pericenter": 251.7529,
        "meta_mean_anomaly": 27.7416,
        "meta_ephemeris_type": 0,
        "meta_classification_type": "U",
        "meta_norad_cat_id": 66498,
        "meta_element_set_no": 999,
        "meta_rev_at_epoch": 545,
        "meta_bstar": 0.00084381086,
        "meta_mean_motion_dot": 0.00035027,
        "meta_mean_motion_ddot": 0,
        "tle_line1": "1 66498U 25263P   25345.58335648  .00035027  00000+0  84381-3 0  9995",
        "tle_line2": "2 66498  43.0003 131.9819 0001381 251.7529  27.7416 15.40631882  5450"
      },
      "geometry": {
        "type": "Point",
        "coordinates": [
          4.201218324829943,
          -37.538104595565116
        ]
      }
    },
    {
      "type": "Feature",
      "properties": {
        "norad_id": 66499,
        "name": "STARLINK-35816",
        "group": "last-30-days",
        "lat": -42.108384667677115,
        "lon": 52.65755556747807,
        "alt_km": 443.54535022014716,
        "timestamp": "2025-12-12T03:50:51.176247+00:00",
        "meta_object_name": "STARLINK-35816",
        "meta_object_id": "2025-263Q",
        "meta_epoch": "2025-12-11T14:00:01.999872",
        "meta_mean_motion": 15.44231122,
        "meta_eccentricity": 0.00011726,
        "meta_inclination": 43.0005,
        "meta_ra_of_asc_node": 131.9045,
        "meta_arg_of_pericenter": 264.3505,
        "meta_mean_anomaly": 47.4986,
        "meta_ephemeris_type": 0,
        "meta_classification_type": "U",
        "meta_norad_cat_id": 66499,
        "meta_element_set_no": 999,
        "meta_rev_at_epoch": 545,
        "meta_bstar": -0.049188631,
        "meta_mean_motion_dot": -0.02055545,
        "meta_mean_motion_ddot": 0,
        "tle_line1": "1 66499U 25263Q   25345.58335648 -.02055545  00000+0 -49189-1 0  9992",
        "tle_line2": "2 66499  43.0005 131.9045 0001172 264.3505  47.4986 15.44231122  5454"
      },
      "geometry": {
        "type": "Point",
        "coordinates": [
          52.65755556747807,
          -42.108384667677115
        ]
      }
    },
    {
      "type": "Feature",
      "properties": {
        "norad_id": 66500,
        "name": "STARLINK-35894",
        "group": "last-30-days",
        "lat": -25.13950808934907,
        "lon": -21.042864726013313,
        "alt_km": 446.83176265161546,
        "timestamp": "2025-12-12T03:50:51.176257+00:00",
        "meta_object_name": "STARLINK-35894",
        "meta_object_id": "2025-263R",
        "meta_epoch": "2025-12-11T14:00:01.999872",
        "meta_mean_motion": 15.42830273,
        "meta_eccentricity": 0.00015135,
        "meta_inclination": 43.0006,
        "meta_ra_of_asc_node": 132.0494,
        "meta_arg_of_pericenter": 262.4454,
        "meta_mean_anomaly": 350.3836,
        "meta_ephemeris_type": 0,
        "meta_classification_type": "U",
        "meta_norad_cat_id": 66500,
        "meta_element_set_no": 999,
        "meta_rev_at_epoch": 545,
        "meta_bstar": -0.051316155,
        "meta_mean_motion_dot": -0.02045653,
        "meta_mean_motion_ddot": 0,
        "tle_line1": "1 66500U 25263R   25345.58335648 -.02045653  00000+0 -51316-1 0  9999",
        "tle_line2": "2 66500  43.0006 132.0494 0001513 262.4454 350.3836 15.42830273  5459"
      },
      "geometry": {
        "type": "Point",
        "coordinates": [
          -21.042864726013313,
          -25.13950808934907
        ]
      }
    },
    {
      "type": "Feature",
      "properties": {
        "norad_id": 66501,
        "name": "STARLINK-35897",
        "group": "last-30-days",
        "lat": -36.30060580212337,
        "lon": 76.49445730290715,
        "alt_km": 434.72899121894625,
        "timestamp": "2025-12-12T03:50:51.176267+00:00",
        "meta_object_name": "STARLINK-35897",
        "meta_object_id": "2025-263S",
        "meta_epoch": "2025-12-11T14:00:01.999872",
        "meta_mean_motion": 15.47145962,
        "meta_eccentricity": 0.00014041,
        "meta_inclination": 43.0006,
        "meta_ra_of_asc_node": 131.8722,
        "meta_arg_of_pericenter": 264.5642,
        "meta_mean_anomaly": 60.5765,
        "meta_ephemeris_type": 0,
        "meta_classification_type": "U",
        "meta_norad_cat_id": 66501,
        "meta_element_set_no": 999,
        "meta_rev_at_epoch": 545,
        "meta_bstar": -0.044830364,
        "meta_mean_motion_dot": -0.02071035,
        "meta_mean_motion_ddot": 0,
        "tle_line1": "1 66501U 25263S   25345.58335648 -.02071035  00000+0 -44830-1 0  9996",
        "tle_line2": "2 66501  43.0006 131.8722 0001404 264.5642  60.5765 15.47145962  5452"
      },
      "geometry": {
        "type": "Point",
        "coordinates": [
          76.49445730290715,
          -36.30060580212337
        ]
      }
    },
    {
      "type": "Feature",
      "properties": {
        "norad_id": 66502,
        "name": "STARLINK-35922",
        "group": "last-30-days",
        "lat": -25.993544261892765,
        "lon": 96.9185454734517,
        "alt_km": 417.2485663173384,
        "timestamp": "2025-12-12T03:50:51.176280+00:00",
        "meta_object_name": "STARLINK-35922",
        "meta_object_id": "2025-263T",
        "meta_epoch": "2025-12-11T14:00:01.999872",
        "meta_mean_motion": 15.50619921,
        "meta_eccentricity": 0.00014303,
        "meta_inclination": 43.0002,
        "meta_ra_of_asc_node": 131.8444,
        "meta_arg_of_pericenter": 262.8231,
        "meta_mean_anomaly": 72.8273,
        "meta_ephemeris_type": 0,
        "meta_classification_type": "U",
        "meta_norad_cat_id": 66502,
        "meta_element_set_no": 999,
        "meta_rev_at_epoch": 545,
        "meta_bstar": -0.0024804207,
        "meta_mean_motion_dot": -0.00143431,
        "meta_mean_motion_ddot": 0,
        "tle_line1": "1 66502U 25263T   25345.58335648 -.00143431  00000+0 -24804-2 0  9995",
        "tle_line2": "2 66502  43.0002 131.8444 0001430 262.8231  72.8273 15.50619921  5459"
      },
      "geometry": {
        "type": "Point",
        "coordinates": [
          96.9185454734517,
          -25.993544261892765
        ]
      }
    }
  ]
}